<?xml version="1.0" encoding="UTF-8"?><kml xmlns="http://www.opengis.net/kml/2.2"><Document><Placemark><name>Rock Creek</name><ExtendedData><Data name="name"><value>Rock Creek</value></Data><Data name="notes"><value></value></Data><Data name="id"><value>602d591e-f9c9-43eb-b310-d137583142a0</value></Data><Data name="type"><value>Line</value></Data><Data name="color"><value>rgba(0,255,255,1)</value></Data><Data name="style"><value>dash</value></Data><Data name="weight"><value>4.0</value></Data></ExtendedData><LineString><coordinates>-121.822964,39.853081 -121.832108,39.846405 -121.832399,39.846101 -121.833007,39.845715 -121.833324,39.845377 -121.83365,39.845133 -121.834108,39.844964 -121.834452,39.844809 -121.834796,39.844362 -121.835122,39.844091 -121.836294,39.843868 -121.836576,39.843611 -121.837924,39.843266 -121.8381,39.842819 -121.838338,39.842393 -121.838277,39.841554 -121.838277,39.84081 -121.838488,39.840383 -121.838955,39.840086 -121.839704,39.839774 -121.84033,39.839375 -121.840815,39.839219 -121.841291,39.838807 -121.842859,39.838306 -121.843318,39.837548 -121.844164,39.836695 -121.844551,39.836404 -121.84634,39.83589 -121.847482,39.835399 -121.847817,39.835067 -121.847923,39.834851 -121.848725,39.83433 -121.8492,39.833775 -121.850311,39.832908 -121.850663,39.832482 -121.851183,39.832076 -121.851597,39.8319 -121.852311,39.831677 -121.852814,39.831169 -121.853184,39.830695 -121.853572,39.830391 -121.853968,39.830127 -121.85455,39.829877 -121.85514,39.829653 -121.855722,39.82924 -121.85603,39.828834 -121.856295,39.82855 -121.85663,39.828618 -121.857132,39.828482 -121.85796,39.828401 -121.858903,39.828205 -121.859317,39.828049 -121.859705,39.827636 -121.859943,39.827542 -121.86069,39.826895 -121.86114,39.826773 -121.861501,39.826522 -121.86173,39.826401 -121.862876,39.825649 -121.86322,39.825582 -121.864295,39.825446 -121.864788,39.825284 -121.865264,39.825324 -121.866172,39.824736 -121.866542,39.82462 -121.867044,39.824336 -121.868155,39.824147 -121.868914,39.823942 -121.869778,39.823604 -121.870166,39.82359 -121.870818,39.823733 -121.871232,39.823773 -121.872351,39.823367 -121.872616,39.823002 -121.873321,39.821939 -121.873832,39.821797 -121.875066,39.82179 -121.875727,39.821668 -121.876185,39.821384 -121.876476,39.821377 -121.877339,39.821499 -121.877991,39.821661 -121.878309,39.821702 -121.878776,39.821452 -121.879146,39.821411 -121.879869,39.821519 -121.880336,39.821641 -121.880979,39.821925 -121.881658,39.821871 -121.882283,39.821756 -121.882962,39.821526 -121.883596,39.821276 -121.884116,39.820951 -121.884522,39.820572 -121.884883,39.81955 -121.885086,39.81913 -121.885271,39.818683 -121.885844,39.818209 -121.886672,39.818088 -121.887527,39.818284 -121.888664,39.818595 -121.889351,39.818832 -121.890973,39.81913 -121.89151,39.819286 -121.892074,39.819522 -121.892206,39.819671 -121.892347,39.819671 -121.892604,39.81941 -121.89367,39.818964 -121.894181,39.818842 -121.89575,39.818713 -121.896367,39.818754 -121.897177,39.818991 -121.897966,39.819175 -121.899526,39.81927 -121.900222,39.819365 -121.901103,39.81971 -121.901632,39.820001 -121.901949,39.820414 -121.902337,39.820841 -121.902919,39.820962 -121.903298,39.820915 -121.903765,39.820786 -121.904091,39.820516 -121.904426,39.820292 -121.90484,39.820211 -121.905078,39.820313 -121.905492,39.820522 -121.905818,39.820583 -121.906118,39.82057 -121.907299,39.820137 -121.90781,39.819798 -121.907959,39.819534 -121.908109,39.819094 -121.908673,39.818478 -121.90914,39.818241 -121.909696,39.818228 -121.910145,39.818404 -121.910312,39.818722 -121.910515,39.819514 -121.91048,39.820434 -121.910586,39.820705 -121.910973,39.820739 -121.911326,39.820489 -121.911758,39.819886 -121.912498,39.818614 -121.912842,39.818356 -121.913291,39.818336 -121.913626,39.818654 -121.914111,39.818979 -121.91456,39.819236 -121.914966,39.819399 -121.915345,39.819372 -121.915961,39.819142 -121.916428,39.818999 -121.917336,39.818891 -121.917969,39.818929 -121.918577,39.818835 -121.918991,39.818638 -121.919476,39.818577 -121.920216,39.818584 -121.92056,39.818692 -121.921,39.819044 -121.921573,39.819356 -121.922137,39.81943 -121.922349,39.819322 -121.922551,39.819166 -121.923107,39.818841 -121.923662,39.81855 -121.924182,39.818408 -121.924596,39.81832 -121.925045,39.818435 -121.925363,39.818679 -121.925722,39.818881 -121.92655,39.81926 -121.926911,39.819321 -121.927167,39.819328 -121.927801,39.819131 -121.928436,39.818718 -121.928771,39.818414 -121.929142,39.818168 -121.929697,39.817938 -121.930137,39.817674 -121.930745,39.817565 -121.931204,39.817538 -121.931503,39.817558 -121.931821,39.817464 -121.931935,39.817254 -121.931962,39.816983 -121.932235,39.816706 -121.932552,39.816563 -121.932913,39.816489 -121.933275,39.81634 -121.93353,39.816151 -121.933724,39.815968 -121.934077,39.815887 -121.934306,39.815954 -121.934597,39.816002 -121.935002,39.815927 -121.935249,39.815711 -121.935381,39.814844 -121.935302,39.814181 -121.935046,39.813328 -121.934667,39.812928 -121.934429,39.812617 -121.934456,39.812285 -121.934526,39.811879 -121.93479,39.811432 -121.934808,39.811195 -121.934755,39.810715 -121.934508,39.810444 -121.934182,39.810133 -121.934103,39.809781 -121.934174,39.809185 -121.935205,39.807993 -121.935742,39.807662 -121.936588,39.807222 -121.937152,39.806531 -121.937381,39.806281 -121.938095,39.805976 -121.938377,39.805644 -121.938598,39.805292 -121.938677,39.805001 -121.939003,39.804764 -121.939311,39.804568 -121.939602,39.804324 -121.939761,39.80406 -121.939955,39.803803 -121.941083,39.803126 -121.941515,39.802902 -121.941823,39.802828 -121.94192,39.8023 -121.942079,39.801988 -121.942554,39.801812 -121.943242,39.801731 -121.943753,39.801717 -121.944229,39.801656 -121.944669,39.801345 -121.94481,39.800959 -121.945524,39.800668 -121.946185,39.800438 -121.946644,39.800465 -121.947287,39.800566 -121.947965,39.800411 -121.948485,39.799984 -121.948785,39.799632 -121.948952,39.799029 -121.948979,39.79861 -121.949243,39.79817 -121.949508,39.798027 -121.950063,39.797858 -121.950371,39.797675 -121.950609,39.797445 -121.951261,39.797222 -121.951896,39.797073 -121.952231,39.796978 -121.953024,39.79689 -121.9535,39.796693 -121.953729,39.796341 -121.953984,39.795901 -121.954425,39.79559 -121.955139,39.795305 -121.955932,39.795014 -121.956637,39.794689 -121.957043,39.794649 -121.957342,39.794391 -121.95773,39.794154 -121.958188,39.794202 -121.958391,39.794141 -121.958638,39.793856 -121.958752,39.793653 -121.959589,39.793321 -121.960153,39.792881 -121.960462,39.79259 -121.961308,39.792123 -121.961969,39.79106</coordinates></LineString></Placemark><Placemark><name>Diversion</name><ExtendedData><Data name="name"><value>Diversion</value></Data><Data name="notes"><value></value></Data><Data name="id"><value>c36107d3-bf59-45e8-a26a-7ad980219002</value></Data><Data name="color"><value>rgba(255, 255, 0, 1)</value></Data><Data name="icon"><value>Location</value></Data></ExtendedData><Point><coordinates>-121.836385,39.843957</coordinates></Point></Placemark><Placemark><name>Bifurcation</name><ExtendedData><Data name="name"><value>Bifurcation</value></Data><Data name="notes"><value></value></Data><Data name="id"><value>930fcc53-ae79-429f-8e64-33c2d6fb30f4</value></Data><Data name="color"><value>rgba(255, 255, 0, 1)</value></Data><Data name="icon"><value>Location</value></Data></ExtendedData><Point><coordinates>-121.856322,39.828581,87.75</coordinates></Point></Placemark><Placemark><name>Rock Sand 2 Diversion</name><ExtendedData><Data name="name"><value>Rock Sand 2 Diversion</value></Data><Data name="notes"><value></value></Data><Data name="id"><value>2a801d7f-ba01-40a4-913c-23618d7a1b8f</value></Data><Data name="type"><value>Line</value></Data><Data name="color"><value>rgba(255,51,0,1)</value></Data><Data name="style"><value>dash</value></Data><Data name="weight"><value>6.0</value></Data></ExtendedData><LineString><coordinates>-121.840857,39.843748 -121.841048,39.84353 -121.841196,39.842997 -121.841292,39.842751 -121.841358,39.842493 -121.841782,39.842272 -121.842048,39.842193 -121.842399,39.842213 -121.842697,39.842153 -121.842985,39.841989 -121.843299,39.84191 -121.843424,39.841791 -121.843642,39.841731 -121.843852,39.841754 -121.844022,39.841669 -121.844313,39.841576 -121.844553,39.841423 -121.844741,39.841241 -121.845445,39.840828 -121.8457,39.840661 -121.846036,39.84055 -121.846441,39.840352 -121.846737,39.840298 -121.846954,39.840233 -121.847216,39.840264 -121.847574,39.84012 -121.847939,39.840123 -121.848271,39.839978 -121.848599,39.840004 -121.848965,39.839885 -121.849308,39.839902 -121.849905,39.839757 -121.850079,39.839565 -121.850167,39.83938 -121.850329,39.839143 -121.850761,39.838958 -121.850946,39.838967 -121.851112,39.839077 -121.851362,39.839077 -121.851598,39.838927 -121.851849,39.83891 -121.852063,39.838958 -121.852259,39.838851 -121.852399,39.838706 -121.852657,39.838653 -121.852838,39.838539 -121.853004,39.83846 -121.8531,39.838335 -121.853247,39.838264 -121.853502,39.838211 -121.853727,39.838197 -121.853792,39.838153 -121.853816,39.838105 -121.853785,39.837967 -121.85373,39.83787 -121.853749,39.837834 -121.853798,39.837818 -121.853865,39.837823 -121.854147,39.837901 -121.854208,39.837905 -121.854255,39.837901 -121.854367,39.837819 -121.854588,39.837868 -121.854949,39.837978 -121.855006,39.838013 -121.855362,39.838342 -121.855512,39.838442 -121.855591,39.838469 -121.855866,39.838496 -121.856124,39.838427 -121.856345,39.838417 -121.856511,39.838447 -121.856612,39.838498 -121.856684,39.838495 -121.856721,39.838466 -121.856741,39.838425 -121.856748,39.838321 -121.856781,39.838288 -121.856823,39.838265 -121.856949,39.838278 -121.857048,39.83823 -121.857246,39.838096 -121.857382,39.838031 -121.857586,39.837963 -121.857676,39.837902 -121.857949,39.837555 -121.85791,39.837523 -121.857921,39.837491 -121.858032,39.837432 -121.858163,39.83728 -121.858303,39.837176 -121.858458,39.837082 -121.858593,39.837047 -121.858907,39.836886 -121.858992,39.836762 -121.859003,39.836697 -121.858944,39.836544 -121.858959,39.836415 -121.858983,39.836364 -121.859419,39.836139 -121.859466,39.836122 -121.859624,39.836109 -121.860058,39.835936 -121.860364,39.835874 -121.860408,39.835852 -121.860519,39.835859 -121.860909,39.835792 -121.861172,39.835766 -121.861338,39.835773 -121.861902,39.835869 -121.862023,39.835861 -121.862203,39.835821 -121.862431,39.835833 -121.862537,39.835865 -121.862835,39.83602 -121.862893,39.836068 -121.862983,39.836201 -121.863099,39.836466 -121.863268,39.836546 -121.863323,39.836547 -121.86337,39.836494 -121.863344,39.836429 -121.86327,39.836361 -121.863334,39.836093 -121.863343,39.835932 -121.8634,39.835879 -121.863505,39.835903 -121.863709,39.835993 -121.863897,39.836102 -121.864008,39.836133 -121.864166,39.83615 -121.864447,39.836168 -121.86485,39.836146 -121.864992,39.83616 -121.865467,39.836107 -121.865648,39.836114 -121.86571,39.836099 -121.865827,39.836133 -121.866219,39.836524 -121.866335,39.836597 -121.86654,39.836664 -121.866614,39.83667 -121.866672,39.836655 -121.866817,39.836473 -121.866952,39.83641 -121.867035,39.836395 -121.867281,39.836434 -121.867851,39.836406 -121.868337,39.836413 -121.868487,39.836398 -121.868673,39.836456 -121.868838,39.836469 -121.869249,39.836567 -121.869612,39.836467 -121.869665,39.836404 -121.869374,39.836313 -121.869234,39.836252 -121.869214,39.836134 -121.869317,39.836036 -121.869577,39.835869 -121.869813,39.835732 -121.869935,39.835688 -121.870142,39.835725 -121.870355,39.835738 -121.870914,39.835575 -121.871132,39.83556 -121.871458,39.835567 -121.871756,39.835456 -121.871908,39.835477 -121.872099,39.835656 -121.872254,39.835671 -121.872364,39.835638 -121.872451,39.83538 -121.872787,39.83507 -121.872985,39.83497 -121.873293,39.834962 -121.873533,39.835033 -121.873754,39.835068 -121.873922,39.835047 -121.874144,39.834953 -121.874205,39.834799 -121.874207,39.834652 -121.874245,39.834512 -121.874488,39.834182 -121.874631,39.83379 -121.874759,39.833688 -121.875569,39.833557 -121.875684,39.83349 -121.87617,39.833434 -121.876343,39.83338 -121.876586,39.833115 -121.876746,39.832761 -121.876883,39.83262 -121.87703,39.832499 -121.877266,39.832366 -121.877411,39.832305 -121.877534,39.832266 -121.877692,39.832278 -121.87809,39.832149 -121.878471,39.831918 -121.879075,39.831645 -121.87906,39.831466 -121.878982,39.831116 -121.879004,39.830983 -121.879105,39.830669 -121.879192,39.830548 -121.879255,39.830517 -121.879275,39.830573 -121.87948,39.830602 -121.879586,39.830691 -121.879696,39.830831 -121.879791,39.830887 -121.879914,39.830896 -121.880019,39.830844 -121.880084,39.830725 -121.880077,39.830533 -121.880109,39.830429 -121.880224,39.830333 -121.88042,39.830304 -121.880635,39.830296 -121.881051,39.830435 -121.881522,39.830437 -121.881745,39.830471 -121.882035,39.830544 -121.882166,39.830664 -121.882346,39.830667 -121.882521,39.830604 -121.882577,39.830514 -121.882542,39.830402 -121.882519,39.830246 -121.882531,39.830117 -121.882622,39.830008 -121.882897,39.829854 -121.88304,39.829798 -121.883258,39.829727 -121.883521,39.829694 -121.883681,39.829606 -121.883982,39.829542 -121.884142,39.829419 -121.884513,39.829234 -121.884621,39.829088 -121.884576,39.828969 -121.884363,39.828853 -121.884247,39.828711 -121.884253,39.828615 -121.884508,39.828324 -121.884664,39.828064 -121.884883,39.827996 -121.885221,39.828 -121.885408,39.82798 -121.885434,39.827848 -121.885309,39.82766 -121.885237,39.827512 -121.885315,39.827432 -121.885476,39.82744 -121.885731,39.827492 -121.885986,39.827408 -121.88646,39.827132 -121.887115,39.827236 -121.887266,39.827224 -121.887454,39.827144 -121.887714,39.827096 -121.887948,39.827156 -121.887964,39.827284 -121.887959,39.827436 -121.888037,39.827572 -121.888281,39.827592 -121.888401,39.82748 -121.888562,39.827388 -121.888885,39.827328 -121.889197,39.827296 -121.889395,39.827188 -121.889432,39.827052 -121.889234,39.826513 -121.889093,39.826377 -121.888786,39.826277 -121.888739,39.826197 -121.888833,39.826065 -121.888974,39.825917 -121.88913,39.825837 -121.889301,39.825849 -121.889525,39.825829 -121.889629,39.825781 -121.889832,39.825565 -121.889973,39.825193 -121.890191,39.824753 -121.890202,39.824618 -121.890275,39.82449 -121.890374,39.824382 -121.890933,39.824218 -121.891172,39.823979 -121.891469,39.823631 -121.8915,39.823563 -121.891557,39.823075 -121.891766,39.822647 -121.891917,39.822484 -121.892427,39.8222 -121.892692,39.821932 -121.893098,39.82148 -121.893124,39.82136 -121.893103,39.821076 -121.893176,39.820972 -121.89328,39.820885 -121.893686,39.820689 -121.893821,39.820589 -121.894217,39.820485 -121.894378,39.820385 -121.894587,39.820225 -121.894581,39.820101 -121.894488,39.820025 -121.894342,39.819961 -121.894207,39.819845 -121.894139,39.819741 -121.894181,39.819577 -121.894285,39.819461 -121.894373,39.819309 -121.894311,39.819194 -121.89417,39.819122 -121.894097,39.819042 -121.894103,39.818918 -121.894123,39.818842</coordinates></LineString></Placemark><Placemark><name>Rock-Sand Diversion</name><ExtendedData><Data name="name"><value>Rock-Sand Diversion</value></Data><Data name="notes"><value></value></Data><Data name="id"><value>e2071b06-cb78-431e-b334-7cd554e35d7f</value></Data><Data name="type"><value>Line</value></Data><Data name="color"><value>rgba(255,51,0,1)</value></Data><Data name="style"><value>dash</value></Data><Data name="weight"><value>6.0</value></Data></ExtendedData><LineString><coordinates>-121.836702,39.844111 -121.838432,39.844104 -121.841055,39.843726 -121.843669,39.843866 -121.845135,39.843796 -121.846164,39.843565 -121.847129,39.843027 -121.847967,39.842691 -121.84876,39.842433 -121.850244,39.842216 -121.851601,39.841866 -121.853577,39.841062 -121.85416,39.840972 -121.854734,39.840615 -121.855553,39.840328 -121.856236,39.840293 -121.857129,39.840489 -121.858076,39.840545 -121.859032,39.840762 -121.859469,39.841174 -121.86007,39.841398 -121.860571,39.841545 -121.860899,39.841447 -121.861136,39.841181 -121.861664,39.840965 -121.862192,39.840825 -121.862429,39.841083 -121.862493,39.841195 -121.863048,39.841195 -121.863239,39.84144 -121.863959,39.841643 -121.864369,39.841699 -121.865043,39.841762 -121.866518,39.842006 -121.867155,39.842286 -121.86759,39.842612 -121.867881,39.842682 -121.868291,39.842661 -121.868719,39.84301 -121.869056,39.843234 -121.869602,39.843416 -121.870012,39.843703 -121.870367,39.843661 -121.871005,39.843724 -121.871533,39.843947 -121.871916,39.844087 -121.872681,39.844066 -121.874347,39.844332 -121.874839,39.844297 -121.875604,39.844528 -121.876077,39.84471 -121.876715,39.844717 -121.877116,39.844793 -121.877443,39.845122 -121.879064,39.845094 -121.879647,39.845045 -121.880066,39.8448 -121.880385,39.844493 -121.882735,39.844968 -121.883345,39.845269 -121.884082,39.845437 -121.884492,39.84529 -121.885212,39.845171 -121.885412,39.844779 -121.885749,39.84443 -121.88594,39.844017 -121.886113,39.843577 -121.886778,39.843185 -121.887315,39.842941 -121.887752,39.842913 -121.888208,39.842633 -121.88859,39.842304 -121.889055,39.842255 -121.890047,39.842472 -121.890211,39.842885 -121.890448,39.843213 -121.89073,39.843353 -121.891195,39.843248 -121.892078,39.84285 -121.89278,39.842605 -121.893144,39.842416 -121.893563,39.841899 -121.893809,39.841626 -121.894045,39.841185 -121.894346,39.840885 -121.89502,39.840675 -121.895211,39.840717 -121.895721,39.840577 -121.895976,39.840465 -121.896413,39.840507 -121.896814,39.840717 -121.897069,39.840577 -121.896969,39.839668 -121.897078,39.839269 -121.897232,39.83892 -121.898243,39.838319 -121.89878,39.837885 -121.899718,39.837193 -121.899973,39.836759 -121.90011,39.836095 -121.900064,39.835515 -121.899873,39.834976 -121.8999,39.834515 -121.900356,39.834081 -121.900884,39.833941 -121.90143,39.83406 -121.901621,39.834438 -121.902031,39.834843 -121.902541,39.834592 -121.90266,39.834102 -121.902851,39.833095 -121.902614,39.832822 -121.901886,39.832808 -121.901348,39.832703 -121.901011,39.832361 -121.901057,39.831871 -121.901467,39.831361 -121.901649,39.830885 -121.901986,39.830549 -121.902523,39.830368 -121.902887,39.830584 -121.903871,39.830689 -121.904308,39.830626 -121.904654,39.830326 -121.904891,39.82978 -121.905109,39.829333 -121.906157,39.828549 -121.906885,39.828123 -121.907668,39.827787 -121.908279,39.827451 -121.908907,39.827199 -121.909572,39.826885 -121.909972,39.826465 -121.910328,39.825759 -121.910555,39.825241 -121.910992,39.824626 -121.911211,39.824108 -121.910956,39.823465 -121.910564,39.823066 -121.910182,39.822506 -121.910273,39.822003 -121.910874,39.82152 -121.911357,39.821419 -121.911794,39.821167 -121.912368,39.821062 -121.913242,39.821006 -121.913616,39.820936 -121.913998,39.820433 -121.914335,39.820069 -121.914699,39.819517 -121.914954,39.81944</coordinates></LineString></Placemark><Placemark><name>Bifurcation</name><ExtendedData><Data name="name"><value>Bifurcation</value></Data><Data name="notes"><value></value></Data><Data name="id"><value>a37c08e5-8af8-45ea-acda-1436928383e7</value></Data><Data name="type"><value>Area</value></Data><Data name="color"><value>rgba(255,255,0,1)</value></Data><Data name="style"><value>solid</value></Data><Data name="weight"><value>4.0</value></Data><Data name="fill_color"><value>rgba(238,255,125,0.1)</value></Data></ExtendedData><Polygon><outerBoundaryIs><LinearRing><coordinates>-121.856035,39.828844 -121.856657,39.828625 -121.856241,39.828388 -121.856035,39.828844</coordinates></LinearRing></outerBoundaryIs></Polygon></Placemark><Placemark><name>Diversion</name><ExtendedData><Data name="name"><value>Diversion</value></Data><Data name="notes"><value></value></Data><Data name="id"><value>91fe0a70-e970-4e16-a8ab-433ca532b904</value></Data><Data name="type"><value>Area</value></Data><Data name="color"><value>rgba(255,255,0,1)</value></Data><Data name="style"><value>solid</value></Data><Data name="weight"><value>6.0</value></Data><Data name="fill_color"><value>rgba(238,255,125,0.1)</value></Data></ExtendedData><Polygon><outerBoundaryIs><LinearRing><coordinates>-121.8367,39.844113 -121.836457,39.843741 -121.835942,39.844051 -121.8367,39.844113</coordinates></LinearRing></outerBoundaryIs></Polygon></Placemark><Placemark><name>keefer slough</name><ExtendedData><Data name="name"><value>keefer slough</value></Data><Data name="notes"><value></value></Data><Data name="id"><value>f5c65848-6b43-47f8-83a8-3f81777053dc</value></Data><Data name="type"><value>Line</value></Data><Data name="color"><value>rgba(0,255,255,1)</value></Data><Data name="style"><value>dash</value></Data><Data name="weight"><value>4.0</value></Data></ExtendedData><LineString><coordinates>-121.856297,39.828492 -121.856498,39.828282 -121.856679,39.828159 -121.856752,39.827976 -121.856891,39.827746 -121.857062,39.827563 -121.857357,39.827396 -121.857626,39.827309 -121.858009,39.827229 -121.858283,39.82713 -121.858707,39.826812 -121.85895,39.826701 -121.859436,39.826407 -121.859664,39.826197 -121.859817,39.826089 -121.859961,39.825934 -121.860013,39.825728 -121.86008,39.825585 -121.860303,39.825426 -121.860479,39.825243 -121.860965,39.824636 -121.861441,39.824413 -121.861704,39.824246 -121.861984,39.824111 -121.86248,39.82375 -121.862672,39.823575 -121.862821,39.823407 -121.86293,39.82322 -121.863116,39.823002 -121.863307,39.822799 -121.863478,39.822652 -121.863664,39.822573 -121.863974,39.822557 -121.864176,39.822521 -121.864481,39.822525 -121.864792,39.822501 -121.865086,39.822426 -121.865345,39.822319 -121.865888,39.821949 -121.866198,39.821759 -121.866622,39.821373 -121.866881,39.821286 -121.86715,39.821218 -121.867455,39.821179 -121.867972,39.82102 -121.868272,39.821036 -121.868748,39.821024 -121.868976,39.820956 -121.869136,39.820841 -121.869172,39.820674 -121.86942,39.820483 -121.869534,39.820348 -121.86985,39.820205 -121.870093,39.820054 -121.870584,39.819923 -121.871438,39.819535 -121.871712,39.819456 -121.872048,39.819432 -121.872353,39.819345 -121.872969,39.819102 -121.873362,39.81892 -121.873691,39.81881 -121.873815,39.818599 -121.873986,39.818254 -121.874332,39.817987 -121.874808,39.817785 -121.875175,39.817606 -121.875367,39.817447 -121.875501,39.817272 -121.875615,39.817022 -121.875636,39.816827 -121.875817,39.816633 -121.877065,39.815557 -121.877111,39.815382 -121.877054,39.815061 -121.877028,39.814624 -121.877137,39.81435 -121.877173,39.814119 -121.877184,39.813718 -121.877266,39.813277 -121.87738,39.812951 -121.877509,39.812753 -121.877509,39.812578 -121.877442,39.812383 -121.877158,39.811843 -121.877101,39.811581 -121.877184,39.811386 -121.877618,39.810937 -121.878058,39.810226 -121.878658,39.809487 -121.878911,39.809201 -121.878968,39.809038 -121.879051,39.808871 -121.879237,39.80876 -121.879651,39.808394 -121.879894,39.808327 -121.880256,39.808351 -121.881016,39.808462 -121.881394,39.808446 -121.882293,39.808144 -121.882433,39.808267 -121.882542,39.808518 -121.882899,39.808736 -121.883121,39.808716 -121.883645,39.808322 -121.883764,39.808175 -121.883878,39.807972 -121.884167,39.807654 -121.884364,39.807511 -121.884705,39.807459 -121.884881,39.807595 -121.885103,39.807861 -121.885295,39.80798 -121.885512,39.807952 -121.885781,39.807881 -121.885817,39.807654 -121.885646,39.807436 -121.885419,39.807217 -121.885429,39.806895 -121.885502,39.806641 -121.8856,39.80643 -121.88575,39.806351 -121.885977,39.806403 -121.886396,39.80678 -121.88667,39.806919 -121.886898,39.806987 -121.887348,39.807042 -121.887741,39.806939 -121.888237,39.806621 -121.888445,39.806334 -121.888606,39.806235 -121.888833,39.806207 -121.889102,39.806291 -121.889309,39.80643 -121.889532,39.806458 -121.889764,39.806362 -121.88993,39.806199 -121.890002,39.806044 -121.890173,39.805854 -121.890395,39.805754 -121.890669,39.805826 -121.890819,39.805937 -121.891083,39.806029 -121.891342,39.806033 -121.891599,39.80595 -121.891697,39.805803 -121.891749,39.805585 -121.891863,39.805358 -121.892054,39.805239 -121.893078,39.805335 -121.893446,39.805386 -121.893859,39.805267 -121.894754,39.805295 -121.895023,39.805339 -121.895157,39.805565 -121.895111,39.805752 -121.895152,39.805942 -121.895369,39.806125 -121.895649,39.80626 -121.895923,39.80636 -121.896874,39.806447 -121.89704,39.80657 -121.897149,39.806701 -121.897159,39.806936 -121.897288,39.807043 -121.898121,39.807472 -121.898954,39.807846 -121.899067,39.808004 -121.899129,39.808295 -121.899745,39.808763 -121.900696,39.809451 -121.900852,39.809534 -121.901539,39.809451 -121.901891,39.809427 -121.902176,39.809415 -121.902372,39.80947 -121.902512,39.809594 -121.90277,39.809963 -121.902894,39.810182 -121.90306,39.810337 -121.903267,39.81044 -121.903815,39.810587 -121.904074,39.810678 -121.90427,39.810793 -121.904694,39.810936 -121.904855,39.810921 -121.905661,39.810559 -121.905899,39.810408 -121.906013,39.810281 -121.906189,39.81013 -121.906468,39.810074 -121.906794,39.810066 -121.907301,39.81019 -121.907565,39.810237 -121.90773,39.810186 -121.907865,39.809697 -121.907953,39.809474 -121.908284,39.8093 -121.908878,39.809101 -121.909483,39.809169 -121.910154,39.809177 -121.910537,39.809026 -121.910775,39.808843 -121.910852,39.808668 -121.910997,39.808497 -121.911328,39.808482 -121.911551,39.808529 -121.911747,39.808406 -121.911975,39.807993 -121.912135,39.807778 -121.912403,39.807601 -121.912801,39.807526 -121.913308,39.807498 -121.913893,39.807522 -121.914239,39.807573 -121.914689,39.807955 -121.915036,39.808066 -121.915501,39.808114 -121.916003,39.808094 -121.91667,39.807994 -121.918139,39.807887 -121.918465,39.80803 -121.918615,39.808034 -121.918703,39.807971 -121.918672,39.80782 -121.918719,39.807677 -121.919143,39.807646 -121.919784,39.807455 -121.920286,39.807411 -121.920596,39.807467 -121.921591,39.807769 -121.921766,39.807848 -121.922444,39.808293 -121.922728,39.808357 -121.922987,39.808337 -121.923142,39.808456 -121.923256,39.808699 -121.923359,39.808691 -121.923701,39.80856 -121.924109,39.808655 -121.924259,39.808921 -121.924709,39.809151 -121.924844,39.809104 -121.925144,39.808722 -121.925325,39.80871 -121.925785,39.808854 -121.92594,39.80885 -121.926374,39.808683 -121.926995,39.808488 -121.927192,39.808401 -121.9273,39.808301 -121.927373,39.808158 -121.927621,39.808003 -121.928505,39.807863 -121.929105,39.807661 -121.929436,39.807597 -121.929819,39.807549 -121.930548,39.807287 -121.931485,39.807219 -121.932949,39.807259 -121.935488,39.807276 -121.935855,39.807252 -121.936072,39.807165 -121.936326,39.80703 -121.936574,39.806807 -121.936812,39.806446 -121.936874,39.806303 -121.937008,39.806219 -121.937194,39.806156 -121.938012,39.80575 -121.938068,39.805639 -121.938141,39.805178 -121.938218,39.804984 -121.938343,39.804876 -121.939211,39.804366 -121.939361,39.804239 -121.939402,39.80406 -121.939464,39.803909 -121.93963,39.803826 -121.939873,39.803754 -121.940038,39.803675 -121.940209,39.803635</coordinates></LineString></Placemark></Document></kml>